#dP2021  6 22  0  0  0.00000000      97 __u+U IGS14 FIT  IAC
## 2163 172800.00000000   900.00000000 59387 0.0000000000000
+  123   C01C02C03C04C05C06C07C08C09C10C11C12C13C14C16C19C20
+        C21C22C23C24C25C26C27C28C29C30C32C33C34C35C36C37C38
+        C39C40C41C42C43C44C45C46C60E01E02E03E04E05E07E08E09
+        E11E12E13E14E15E18E19E21E24E25E26E27E30E31E33E36G01
+        G02G03G04G05G06G07G08G09G10G12G13G14G15G16G17G18G19
+        G20G21G22G23G24G25G26G27G28G29G30G31G32J01J02J03J07
+        R01R02R03R04R05R07R08R09R11R12R13R14R15R16R17R18R19
+        R20R21R22R24  0  0  0  0  0  0  0  0  0  0  0  0  0
++        13 13  0 13 13  9 11  9  8  9  8  9  9  8  9  7  7
++         7  7  7  7  7  7  7  7  7  7  7  7  7  7  7  7  8
++         8  8  7  7  7  8  8  7 13  4  4  4  4  4  4  4  5
++         4  4  4  4  4  5  4  4  4  4  4  4  4  4  4  5  3
++         3  5  3  4  3  3  3  3  5  4  3  3  3  4  4  3  4
++         3  3  3  3  3  3  3  3  4  3  3  4  3  9  8  8 16
++         7  6  6  6  5  5  5  6  7  5  7  5  5  7  6  6  7
++         7  5  7  6  0  0  0  0  0  0  0  0  0  0  0  0  0
%c M  cc GPS ccc cccc cccc cccc cccc ccccc ccccc ccccc ccccc
%c cc cc ccc ccc cccc cccc cccc cccc ccccc ccccc ccccc ccccc
%f  1.2500000  1.025000000  0.00000000000  0.000000000000000
%f  0.0000000  0.000000000  0.00000000000  0.000000000000000
%i    0    0    0    0      0      0      0      0         0
%i    0    0    0    0      0      0      0      0         0
/* INFORMATION & ANALYSIS CENTER (IAC)            FINAL DATA
/* S/V CLOCKS ARE ALIGNED TO GNSS TIME                      
/* G:C1WC2W R:C1PC2P E:C1XC5X C:C2IC6I J:C1CC2S             
/* PCV:IGS14_2148 OL/AL:FES2004  NONE     YN ORB:CoN CLK:CoN
*  2021 06 22  8 45  0.00000000
PC01 -34315.740190  24458.894097    -48.837100   -345.995308
PC02   4346.819437  41933.423690    974.067863    571.931028
PC03      0.000000      0.000000      0.000000 999999.999999
PC04 -39599.380386  14438.764886    274.102762   -285.352411
PC05  21862.923849  36023.433084    633.960452    -78.432705
PC06 -24393.225544  32827.128272 -10786.089826    533.153407
PC07  -8699.524809  33798.513581 -23038.743744     47.122871
PC08 -12529.619329  18186.881535  35985.236517   -896.421505
PC09 -12272.657472  32534.861865 -23841.393831    429.591578
PC10   2779.269513  39907.013974 -12301.424614    -27.056713
PC11  19787.745147 -18964.348126  -5313.230664    414.318125
PC12  23851.531296  -8114.723328  12049.633880    835.879048
PC13    457.901896  23268.509219  35282.604423    309.160085
PC14   9159.922398 -20041.756186 -17131.637787    876.842662
PC16 -21901.978811  33454.866860 -13585.857609   -914.869746
PC19  -2947.618724  26039.858908   9585.841881    881.644164
PC20 -13102.995674  12374.024371  21314.501184   -868.198225
PC21  15915.387274   9406.391469 -20875.141217   -935.201360
PC22   9225.190646  25027.816678  -8136.463948   -949.386158
PC23 -15647.356554 -17853.305871  14681.887561   -944.004969
PC24  21782.900404  -4116.263187  16960.488176   -904.357041
PC25   3223.173089 -16042.629604  22602.222514   -897.216348
PC26  26529.996481   8365.193691   2430.746522    889.186307
PC27 -20866.847040   -338.570791 -18557.078885    552.327910
PC28  -5923.254272 -15152.641145 -22676.021600    -59.399969
PC29 -11628.302592  21498.329031  13456.422052    409.453399
PC30 -23092.418753  15150.193341  -4084.170765    471.518092
PC32 -16017.155090  -9328.973812  20882.684821   -924.529174
PC33   2826.295573 -26061.834183  -9591.545702   -937.849647
PC34  22904.478467 -15569.107392   3315.144768   -644.826139
PC35   6106.413818  15238.061024  22559.446934   -221.716670
PC36  -3983.475565  15809.870198 -22618.476202   -728.526704
PC37 -26158.107051  -9574.386000  -1531.620585   -872.238311
PC38 -10966.355511  21254.292707  34718.748745    156.859868
PC39 -18417.270233  34976.395115 -14860.286542     31.916746
PC40  -3045.806552  38258.765296 -17267.098348    173.375978
PC41  -9191.459659 -25152.833039   7900.062897   -950.116972
PC42  13395.888360 -11644.265826 -21492.991506   -914.535539
PC43  12116.856986 -21498.678104 -13019.836312   -787.750096
PC44  20798.026592    -99.044283  18576.893576    252.050047
PC45  15856.056533  17718.535507 -14611.721836    473.814474
PC46 -21012.447240   4859.588464 -17681.647697    212.904926
PC60   7236.370651  41507.694068   1036.699666     -0.524069
PE01 -13460.691393 -24926.458968   8585.456149  -1134.509886
PE02  13566.927987  24918.049560  -8458.039132    227.823053
PE03   2901.282534  24927.416923 -15679.328191   -444.652585
PE04 -15169.598134  -8204.490178  24067.751905   -797.680488
PE05 -11278.041761  27287.506457   2059.492513   -270.992617
PE07  18708.081029 -13736.678614 -18367.339927   -552.845469
PE08  15221.854529   7696.175924 -24184.004959   5982.058678
PE09 -18523.851770  13997.887793  18358.426791   5625.300444
PE11 -28119.708226   8207.715733   4301.531592   5818.712682
PE12 -25251.635380  -4946.036984 -14654.211607   5147.806011
PE13  28213.921935  -8045.077982  -3907.192352    418.067130
PE14   6377.482639 -28066.670738 -12470.282509  -1474.741083
PE15  25265.315138   4794.004875  14652.542998    807.467560
PE18 -12463.572877  21736.703608   2569.091002  -1615.505983
PE19  -1115.228745 -26049.448003  14023.944238    308.461899
PE21   2801.979743 -19613.430054  21993.658179   -672.078320
PE24 -18672.591971   1874.568318 -22895.524096   -968.158621
PE25  -2984.544789  19483.489537 -22075.807855   -537.693218
PE26  13725.124592 -16340.330805 -20517.673341   1664.587999
PE27  18171.238995  -2763.870544  23208.176963    -59.650959
PE30  22546.765622  16457.154085   9855.616942   2843.554770
PE31 -22740.440326 -15594.685755 -10756.797712   -482.472080
PE33  -7458.126817 -14778.338559 -24541.535715   -468.792769
PE36 -14558.748358  16114.280829  20114.023270   -224.336203
PG01 -12045.668350 -13391.816538 -19904.783735    650.833132
PG02 -13529.707881  14004.411797  18742.486609   -614.235141
PG03 -12239.857299 -23594.153960  -1576.635684   -199.008043
PG04  -4272.383609 -18110.308898  18939.210135   -200.573491
PG05   2781.096965  22509.685462  13518.784632    -45.688775
PG06 -23202.131839   7110.748100  10923.355129     30.066344
PG07 -23820.236990  -7496.212459  10104.630925    184.487571
PG08   3593.261632 -23299.987910 -11935.189175    -26.033345
PG09 -13245.511951  -7777.606266  21609.476032   -352.299411
PG10  17072.277564   1883.414304 -20215.751119   -147.295588
PG12   9688.970536  24671.404847  -2881.533665    -58.405760
PG13 -12259.265104  22700.978467  -6125.794181    148.073047
PG14 -17102.904056  -2078.534894 -20232.514795     64.072631
PG15   -281.220411  23578.769520 -12238.427881   -140.670565
PG16   3862.066712 -19516.727310  17117.629151   -345.243540
PG17 -18597.110855   7339.787220 -17059.634688    462.362460
PG18  25103.857758   5409.927159   6915.014019    345.475151
PG19 -19605.463248  14245.253268 -10998.641941     16.634592
PG20   1120.160851  20914.703016  16447.479848    520.919824
PG21  -3978.471516 -14635.824100 -21137.561180    126.632631
PG22  -7589.981485 -23410.979025 -10060.051875   -582.202995
PG23  18868.568171  12805.323474 -13684.746587     93.972370
PG24   7178.713985  15050.157688 -20986.953579    143.630943
PG25  17055.278603  18961.870159   7629.350626    160.355998
PG26  10996.979108 -11458.721570  21201.668943    101.502182
PG27  11859.088887 -23446.574844  -2286.472573   -151.172212
PG28 -14188.450725   4183.255934 -21504.644831    550.469698
PG29  11388.836798   9339.505313  22048.838353   -368.216505
PG30 -26548.738503   1046.550053  -2472.534885   -442.002117
PG31  22034.629319  -8290.589785  12651.780727   -124.472003
PG32  18627.480238 -10333.932177 -15640.393745     17.524438
PJ01 -28533.159487  25285.838640  22942.520770   -400.566999
PJ02 -22594.704080  17890.092760 -26253.705402     -0.367697
PJ03 -28408.068030  31181.620736   7884.700671     -8.803381
PJ07 -25403.960207  33650.398085    -10.860845     -0.021178
PR01   2785.628334 -24971.348717  -4446.218932     81.235319
PR02  -6300.751362 -19266.194838  15491.971640    483.290317
PR03 -10868.830549  -2049.651544  23029.663699     38.146827
PR04  -9083.984952  16039.312070  17664.793484     92.417421
PR05  -2453.597599  25284.957232   2439.434704     74.009995
PR07  10875.056230   1413.759376 -22990.148430    -42.266259
PR08   9092.321840 -16129.056244 -17477.781565    -59.638552
PR09  18570.563743  15800.461403  -7346.487238     -0.835486
PR11  13022.789401  -3918.741964  21589.589171    -14.292434
PR12  -4047.328759 -14281.731784  20768.403201    239.220900
PR13 -18263.201573 -15865.458475   8083.344721    -56.627962
PR14 -21966.248297  -8128.534771 -10112.323461     65.618784
PR15 -12719.665819   4175.500500 -21690.893868    103.112308
PR16   5474.508085  14730.564312 -20152.392154    -16.734745
PR17 -21251.037374   3959.070657 -13509.315031    434.764597
PR18 -22033.543609  12570.037560   2935.550296     80.882398
PR19 -12214.699421  14255.258770  17260.005905   -148.701362
PR20   7736.177826   7673.632928  23059.403867    -51.283099
PR21  21765.733625  -4728.755325  12449.453403   -218.383946
PR22  21659.188536 -12765.882899  -4027.262172   -118.932558
PR24  -8780.925211  -7549.281078 -22717.331811     47.512455
EOF
